IRIDIUM 36              
1 24967U 97056C   24250.66899124  .00001327  00000+0  44135-3 0  9995
2 24967  86.3931 292.0829 0002130  96.5013 263.6427 14.37008610411491
IRIDIUM 39              
1 25042U 97069D   24250.75340400  .00003049  00000+0  80953-3 0  9993
2 25042  86.3960 332.6498 0018763 166.5474 193.6233 14.48291321408183
IRIDIUM 38              
1 25043U 97069E   24251.20764182  .00002098  00000+0  69495-3 0  9993
2 25043  86.4022 352.2057 0001179  30.3740 329.7526 14.37491523405559
IRIDIUM 42              
1 25077U 97077A   24250.38241495  .00001874  00000+0  64177-3 0  9997
2 25077  86.4026 358.3664 0001779  75.1441 284.9953 14.35767451400467
IRIDIUM 44              
1 25078U 97077B   24251.16873834  .00001831  00000+0  58017-3 0  9992
2 25078  86.4011 340.7326 0001220 152.9605 207.1658 14.39616998403004
IRIDIUM 45              
1 25104U 97082A   24251.20323197  .00039632  00000+0  20329-2 0  9999
2 25104  86.3731 183.6606 0146608 301.3058  57.3891 15.07421321409447
IRIDIUM 24              
1 25105U 97082B   24251.43291222  .00002552  00000+0  78119-3 0  9990
2 25105  86.3963 200.0642 0009319 298.6075  61.4187 14.41424937402724
IRIDIUM 51              
1 25262U 98018A   24251.36433091  .00038222  00000+0  15854-2 0  9997
2 25262  86.3992 193.1268 0130095 237.7786 121.0790 15.16205596404068
